[
    {
        "Altitude(m)": 610399.5203953402,
        "Argument of Periapsis(deg)": 0.0,
        "Eccentricity": 0.0,
        "Inclination(deg)": 60.0,
        "Latitude(deg)": 52.11131165254993,
        "Longitude(deg)": -22.415826129152347,
        "Mean Anomaly(deg)": 65.45450000000001,
        "RAAN(deg)": 30.0,
        "Satellite Name": "Test1 136",
        "Satellite Number": 136,
        "Semi-Major Axis(m)": 6980739.136638005,
        "Time(s)": 0
    },
    {
        "Altitude(m)": 610481.6720183146,
        "Argument of Periapsis(deg)": 0.00010418945913296404,
        "Eccentricity": 0.0,
        "Inclination(deg)": 60.0,
        "Latitude(deg)": 52.47091531821444,
        "Longitude(deg)": -21.63369203140462,
        "Mean Anomaly(deg)": 66.07460614546181,
        "RAAN(deg)": 29.99957995086026,
        "Satellite Name": "Test1 136",
        "Satellite Number": 136,
        "Semi-Major Axis(m)": 6980739.136638005,
        "Time(s)": 10
    }
]